[{"OBJECT_NAME":"STARLINK-30132","OBJECT_ID":"2023-067R","EPOCH":"2026-03-09T22:00:01.999584","MEAN_MOTION":15.21209439,"ECCENTRICITY":0.00015319,"INCLINATION":42.9992,"RA_OF_ASC_NODE":272.3711,"ARG_OF_PERICENTER":290.3973,"MEAN_ANOMALY":90.6394,"EPHEMERIS_TYPE":0,"CLASSIFICATION_TYPE":"U","NORAD_CAT_ID":56703,"ELEMENT_SET_NO":999,"REV_AT_EPOCH":573,"BSTAR":0.072253179,"MEAN_MOTION_DOT":0.01805399,"MEAN_MOTION_DDOT":0},{"OBJECT_NAME":"FOREST-3","OBJECT_ID":"2025-009CB","EPOCH":"2026-03-09T16:52:36.334848","MEAN_MOTION":15.23505035,"ECCENTRICITY":0.00043691,"INCLINATION":97.3949,"RA_OF_ASC_NODE":149.5432,"ARG_OF_PERICENTER":350.1299,"MEAN_ANOMALY":9.9851,"EPHEMERIS_TYPE":0,"CLASSIFICATION_TYPE":"U","NORAD_CAT_ID":62682,"ELEMENT_SET_NO":999,"REV_AT_EPOCH":12128,"BSTAR":0.000357114,"MEAN_MOTION_DOT":8.458e-5,"MEAN_MOTION_DDOT":0}]
